{
    "links": {
        "self": "http://www.neowsapp.com/rest/v1/neo/54097865?api_key=iIulBulltgU6a56xZRHN4H3l9WmuAYTsLGpBGhQ2"
    },
    "id": "54097865",
    "neo_reference_id": "54097865",
    "name": "(2020 XE)",
    "designation": "2020 XE",
    "nasa_jpl_url": "http://ssd.jpl.nasa.gov/sbdb.cgi?sstr=54097865",
    "absolute_magnitude_h": 26.191,
    "estimated_diameter": {
        "kilometers": {
            "estimated_diameter_min": 0.0153587184,
            "estimated_diameter_max": 0.0343431383
        },
        "meters": {
            "estimated_diameter_min": 15.35871836,
            "estimated_diameter_max": 34.3431383002
        },
        "miles": {
            "estimated_diameter_min": 0.0095434622,
            "estimated_diameter_max": 0.0213398302
        },
        "feet": {
            "estimated_diameter_min": 50.3894975442,
            "estimated_diameter_max": 112.6743418609
        }
    },
    "is_potentially_hazardous_asteroid": false,
    "close_approach_data": [
        {
            "close_approach_date": "2020-12-01",
            "close_approach_date_full": "2020-Dec-01 12:23",
            "epoch_date_close_approach": 1606825380000,
            "relative_velocity": {
                "kilometers_per_second": "23.6734313578",
                "kilometers_per_hour": "85224.3528880091",
                "miles_per_hour": "52955.0986042188"
            },
            "miss_distance": {
                "astronomical": "0.0019919322",
                "lunar": "0.7748616258",
                "kilometers": "297988.814304414",
                "miles": "185161.6631483532"
            },
            "orbiting_body": "Earth"
        },
        {
            "close_approach_date": "2020-12-01",
            "close_approach_date_full": "2020-Dec-01 16:58",
            "epoch_date_close_approach": 1606841880000,
            "relative_velocity": {
                "kilometers_per_second": "23.9635219391",
                "kilometers_per_hour": "86268.6789808781",
                "miles_per_hour": "53604.0022256462"
            },
            "miss_distance": {
                "astronomical": "0.0014888782",
                "lunar": "0.5791736198",
                "kilometers": "222733.007409434",
                "miles": "138399.8731168292"
            },
            "orbiting_body": "Moon"
        }
    ],
    "orbital_data": {
        "orbit_id": "3",
        "orbit_determination_date": "2020-12-08 05:24:05",
        "first_observation_date": "2020-12-04",
        "last_observation_date": "2020-12-08",
        "data_arc_in_days": 4,
        "observations_used": 44,
        "orbit_uncertainty": "8",
        "minimum_orbit_intersection": ".000429388",
        "jupiter_tisserand_invariant": "2.935",
        "epoch_osculation": "2459188.5",
        "eccentricity": ".7797288402894873",
        "semi_major_axis": "2.520036674633383",
        "inclination": "2.483937572198144",
        "ascending_node_longitude": "248.451559560383",
        "orbital_period": "1461.196820994185",
        "perihelion_distance": ".5550914008345191",
        "perihelion_argument": "91.29008960572975",
        "aphelion_distance": "4.484981948432246",
        "perihelion_time": "2459141.358115721982",
        "mean_anomaly": "11.61450538096539",
        "mean_motion": ".2463733802507586",
        "equinox": "J2000",
        "orbit_class": {
            "orbit_class_type": "APO",
            "orbit_class_description": "Near-Earth asteroid orbits which cross the Earth’s orbit similar to that of 1862 Apollo",
            "orbit_class_range": "a (semi-major axis) > 1.0 AU; q (perihelion) < 1.017 AU"
        }
    },
    "is_sentry_object": false
}